,title,address.street-address,location.latitude,location.longitude,name,address,longitude,latitude,Recorrido
0,Jardines Gregorio Ordóñez,CALLE PRINCIPE DE VERGARA 68,40.43346186779773,-3.6785954778654113,Bicipark Salamanca,Pl. del Marqués de Salamanca,-3.679172,40.430315,356.1619883929638
1,Jardines San Francisco el Grande,AVENIDA GRAN VIA DE SAN FRANCISCO 25,40.41002249621306,-3.7144199127869557,Bicipark Canalejas,-,-3.6994506,40.417807676,1881.3650769161993
2,Jardines de Andrés Saborit,CALLE RAIMUNDO FERNANDEZ VILLAVERDE 32,40.44613326792272,-3.6989699295578347,Bicipark Orense,"Avenida General Perón, 27",-3.693897,40.452973,948.6612724768001
3,Jardines de El Buen Retiro,PLAZA INDEPENDENCIA 7,40.41964087412762,-3.68793370943788,Bicipark Montalban,"Calle de Montalbán, 5",-3.690786,40.418146,359.0642184298908
4,Jardines de Gloria Fuertes,CALLE MADRE DE DIOS 2,40.461517637696026,-3.6751179007317614,Bicipark Recuerdo,"Calle Hiedra, 26",-3.678921,40.472419,1285.5497400199445
5,Jardines de José Luis Jiménez Manso,CALLE CAMINO DE LOS VINATEROS 1,40.410944943237865,-3.660501733743551,Bicipark Salamanca,Pl. del Marqués de Salamanca,-3.679172,40.430315,2997.8070347825505
6,Jardines de Perón,AVENIDA GENERAL PERON 21,40.45257591499544,-3.6957817548357257,Bicipark Orense,"Avenida General Perón, 27",-3.693897,40.452973,214.84347079642484
7,Jardines de Sabatini,CALLE BAILEN 2,40.419911287101144,-3.713185308888602,Bicipark Canalejas,-,-3.6994506,40.417807676,1549.9374656409918
8,Jardines de San Fernando,AVENIDA ALBERTO ALCOCER 9,40.45978849094378,-3.687352342212426,Bicipark Orense,"Avenida General Perón, 27",-3.693897,40.452973,1052.9062804071934
9,Jardines de la Avenida de Brasil,AVENIDA BRASIL 31,40.458706953002235,-3.6934625569379387,Bicipark Orense,"Avenida General Perón, 27",-3.693897,40.452973,640.1378354813646
10,Jardines de la Basílica,CALLE BASILICA 15,40.44903638127448,-3.695615530710886,Bicipark Orense,"Avenida General Perón, 27",-3.693897,40.452973,478.31940007442734
11,Jardines de la Plaza Conde del Valle de Suchil,CALLE RODRIGUEZ SAN PEDRO 3 B,40.43137597367309,-3.7064685006782208,Bicipark Almagro,"Calle Almagro, 11",-3.692879,40.430361,1520.140272646934
12,Jardines de la Plaza de Chamberí,PLAZA CHAMBERI 1,40.43285328749453,-3.697594475998512,Bicipark Almagro,"Calle Almagro, 11",-3.692879,40.430361,594.6999038098375
13,Jardines de la Plaza de Olavide,PLAZA OLAVIDE 16,40.43247362678542,-3.7007855621824293,Bicipark Almagro,"Calle Almagro, 11",-3.692879,40.430361,912.8055083279046
14,"Jardines de la Plaza de Oriente, Lepanto y Cabo Noval",CALLE BAILEN 17,40.41835486065351,-3.712838830603048,Bicipark Canalejas,-,-3.6994506,40.417807676,1494.7360152369015
15,Jardines de la Plaza de la Villa de París,CALLE GENERAL CASTAÑOS 6,40.42620255233654,-3.6934468983675846,Bicipark Villa de Paris,"Calle de Orellana, 23, 21",-3.693698,40.425608,71.86854485733403
16,Jardines de la Vega,CUESTA VEGA 1,40.41476219795408,-3.7154411142835397,Bicipark Canalejas,-,-3.6994506,40.417807676,1815.7198091957168
17,Jardines de la calle Teresita González Quevedo,PLAZA SAN AMARO 4,40.45558642017734,-3.6970275649098454,Bicipark Orense,"Avenida General Perón, 27",-3.693897,40.452973,454.5228755448421
18,Jardines de las Vistillas,CALLE MORERIA 12,40.41281392212301,-3.7143597156687056,Bicipark Canalejas,-,-3.6994506,40.417807676,1753.5994302068052
19,Jardines del Arquitecto Ribera,CALLE BARCELO 2,40.42640449792336,-3.7002981748621955,Bicipark Villa de Paris,"Calle de Orellana, 23, 21",-3.693698,40.425608,741.579928836532
20,Jardines del Descubrimiento,CALLE GOYA 2,40.42518540300912,-3.6887800207651495,Bicipark Villa de Paris,"Calle de Orellana, 23, 21",-3.693698,40.425608,550.6183432522168
21,Jardines del Doctor Fleming,CALLE DOCTOR FLEMING 1,40.45454215758879,-3.6893863385035783,Bicipark Orense,"Avenida General Perón, 27",-3.693897,40.452973,532.6264987630752
22,Jardines del Mundial. Castellana,PASEO CASTELLANA 142 B,40.4530917282714,-3.6893833082867062,Bicipark Orense,"Avenida General Perón, 27",-3.693897,40.452973,503.68006433875576
23,Jardines del Príncipe de Anglona,PLAZA PAJA 6,40.413417349090764,-3.711466649831885,Bicipark Canalejas,-,-3.6994506,40.417807676,1426.7407414816203
24,Jardín Botánico de Pradolongo,AVENIDA RAFAELA YBARRA,40.373745996607155,-3.712180056298639,Bicipark Canalejas,-,-3.6994506,40.417807676,5106.338505429223
25,Jardín Concejal Alejandro Muñoz Revenga,CALLE MELENDEZ VALDES 32,40.43304334055123,-3.712227582685096,Bicipark Almagro,"Calle Almagro, 11",-3.692879,40.430361,2178.935981602115
26,Jardín Doña Concha Piquer,PASEO IMPERIAL 93,40.402080397498985,-3.714965086287463,Bicipark Canalejas,-,-3.6994506,40.417807676,2461.7898947124427
27,Jardín Fachada Pirámides I,PASEO ACACIAS 60,40.40148810908036,-3.713132255123738,Bicipark Canalejas,-,-3.6994506,40.417807676,2372.7023167994616
28,Jardín Glorieta de Azorín,CUESTA VEGA 3,40.414757673901924,-3.7161718357850444,Bicipark Canalejas,-,-3.6994506,40.417807676,1895.95243121685
29,Jardín Jazmín,CALLE ROQUETAS DE MAR 10,40.481785094079584,-3.660098332215654,Bicipark Fuente de la Mora,Estación de Fuente de la Mora,-3.6630679,40.4846838,462.43758851625205
30,Jardín Palacio O'Reilly,PLAZA CRUZ VERDE 2,40.41418990040181,-3.7118283820550775,Bicipark Canalejas,-,-3.6994506,40.417807676,1438.3083308906369
31,Jardín de Embajadores M-30,CALLE PUERTO DE LA CRUZ VERDE 29,40.38418473435094,-3.685817452497564,Bicipark Montalban,"Calle de Montalbán, 5",-3.690786,40.418146,3820.96204017222
32,Jardín de Larra,CALLE FACTOR 7,40.41631909566782,-3.712793771176405,Bicipark Canalejas,-,-3.6994506,40.417807676,1497.6633895394257
33,Jardín de la Colonia Congosto,CALLE CONGOSTO 70,40.37089825532696,-3.618365854832584,Bicipark Salamanca,Pl. del Marqués de Salamanca,-3.679172,40.430315,9473.787487124178
34,Jardín de las Bellas Artes,PASEO CASTELLANA 78 B,40.4390037057741,-3.6905481652485355,Bicipark Almagro,"Calle Almagro, 11",-3.692879,40.430361,996.6158091374574
35,Jardín del Bulevar de Peña Gorbea,CALLE PEÑA GORBEA 17 B,40.3957812018463,-3.6670346724676173,Bicipark Montalban,"Calle de Montalbán, 5",-3.690786,40.418146,3635.637227374215
36,Jardín del Maestro Padilla,CALLE SAN ALEJANDRO 1,40.404491323444994,-3.7213308239798675,Bicipark Canalejas,-,-3.6994506,40.417807676,2855.692705887887
37,Jardín del Templo de Debod,CALLE FERRAZ 1,40.42425096551599,-3.716531855540272,Bicipark Canalejas,-,-3.6994506,40.417807676,2035.992690474036
38,Jardín del paseo Federico García Lorca,PASEO FEDERICO GARCIA LORCA 21,40.37740868500615,-3.6206400361863036,Bicipark Salamanca,Pl. del Marqués de Salamanca,-3.679172,40.430315,8792.837471605051
39,Jardín el Torero,CALLE TORERO 6,40.39218269145896,-3.7056345651289417,Bicipark Canalejas,-,-3.6994506,40.417807676,2934.786733640071
40,Jardín histórico El Capricho de la Alameda Osuna,PASEO ALAMEDA DE OSUNA 25,40.45446361509569,-3.6000964360303476,Bicipark Fuente de la Mora,Estación de Fuente de la Mora,-3.6630679,40.4846838,7788.100200205113
41,Palacio de Cristal de la Arganzuela: Invernadero,PASEO CHOPERA 10,40.3933877847248,-3.698565632659468,Bicipark Canalejas,-,-3.6994506,40.417807676,2720.2017887150782
42,Parque Agustín Rodríguez Sahagún,PASEO DIRECCION 301,40.47022952429582,-3.7038792453996385,Bicipark Orense,"Avenida General Perón, 27",-3.693897,40.452973,2220.396386068008
43,Parque Alcalde Jesús Pérez Quijano,CALLE LADERA DE LOS ALMENDROS,40.40418961057298,-3.622901144863193,Bicipark Salamanca,Pl. del Marqués de Salamanca,-3.679172,40.430315,6917.803457663391
44,Parque Alfredo Kraus,CALLE MAR ADRIATICO 5,40.47098300036034,-3.6393251567222045,Bicipark Fuente de la Mora,Estación de Fuente de la Mora,-3.6630679,40.4846838,3056.171564974677
45,Parque Almansa,CALLE ALMANSA 97,40.449252672650985,-3.7133420888843105,Bicipark Orense,"Avenida General Perón, 27",-3.693897,40.452973,2208.3290675221047
46,Parque Aluche,CALLE TEMBLEQUE 45,40.394320359418835,-3.7592814565910553,Bicipark Aviación,Parking Aviación Española,-3.78369522,40.383491516,2978.468874351647
47,Parque Aluche - Poblados,CALLE GUAREÑA 22,40.38543450752234,-3.765190215590101,Bicipark Aviación,Parking Aviación Española,-3.78369522,40.383491516,2075.7452228123957
48,Parque Alzola,CALLE BEASAIN 2,40.36716919688689,-3.7136655626692887,Bicipark Canalejas,-,-3.6994506,40.417807676,5855.837717281315
49,Parque Antonio Pirala,CALLE ANTONIO PIRALA 8,40.428652595625735,-3.659649292346212,Bicipark Salamanca,Pl. del Marqués de Salamanca,-3.679172,40.430315,2185.571136525221
50,Parque Anunciación,CALLE ANUNCIACION 1,40.41192841997151,-3.67583331713166,Bicipark Montalban,"Calle de Montalbán, 5",-3.690786,40.418146,1805.8738096756185
51,Parque Arquitecto Antonio Palacios,CALLE FENELON 17,40.43847239256322,-3.6087501533089923,Bicipark Salamanca,Pl. del Marqués de Salamanca,-3.679172,40.430315,7907.51932211063
52,Parque Arroyo Fontarrón,CALLE ARROYO FONTARRON 22,40.39476596114844,-3.6361646051817518,Bicipark Salamanca,Pl. del Marqués de Salamanca,-3.679172,40.430315,6218.89369083758
53,Parque Arroyo Fresno,AVENIDA VENTISQUERO DE LA CONDESA 43,40.49284296962057,-3.7169069720385446,Bicipark Pitis,"Calle Pau Arroyo del Fresno, 181",-3.7249142,40.4959425,957.5673687823546
54,Parque Arroyo Pozuelo,Calle Arroyo Pozuelo ,40.45451429342977,-3.7856220495572703,Bicipark Aviación,Parking Aviación Española,-3.78369522,40.383491516,7909.1411895778265
55,Parque Arroyo de los Pinos,CALLE JOAQUIN LORENZO 21,40.47343735166941,-3.7241915440169024,Bicipark Pitis,"Calle Pau Arroyo del Fresno, 181",-3.7249142,40.4959425,2506.5583737673483
56,Parque Avenida de Portugal,AUTOVIA A-5 300,40.41214880704316,-3.7356620312409365,Bicipark Canalejas,-,-3.6994506,40.417807676,4088.361038894266
57,Parque Azorín,AVENIDA ALBUFERA 142,40.39144717132174,-3.6545377410677498,Bicipark Montalban,"Calle de Montalbán, 5",-3.690786,40.418146,5018.246736510154
58,Parque Barrio Las Musas,AVENIDA NIZA 55 B,40.43173953068984,-3.607628369908832,Bicipark Salamanca,Pl. del Marqués de Salamanca,-3.679172,40.430315,7981.9056048251405
59,Parque Begoña,CALLE SAN MODESTO 1,40.48390626699566,-3.687220746230517,Bicipark Recuerdo,"Calle Hiedra, 26",-3.678921,40.472419,1578.7306567105413
60,Parque Biosaludable,PASEO ALAMEDA DE OSUNA 8,40.452057731817305,-3.6036483614197765,Bicipark Fuente de la Mora,Estación de Fuente de la Mora,-3.6630679,40.4846838,7557.74777860887
61,Parque Campo de la Paloma,AVENIDA RAFAEL ALBERTI 38,40.38339946706653,-3.643762543356842,Bicipark Montalban,"Calle de Montalbán, 5",-3.690786,40.418146,6517.288692817034
62,Parque Caramuel,CALLE CARAMUEL 53,40.4081704733386,-3.729395994595502,Bicipark Canalejas,-,-3.6994506,40.417807676,3508.563059958368
63,Parque Cerro Almodóvar,CALLE MARCELINO CASTILLO 29,40.393928614376,-3.744713323980896,Bicipark Aviación,Parking Aviación Española,-3.78369522,40.383491516,4501.354795381812
64,Parque Cerro Peñabel,CALLE CANDIDO MATEOS 12,40.47406043289477,-3.718181785566969,Bicipark Pitis,"Calle Pau Arroyo del Fresno, 181",-3.7249142,40.4959425,2549.0511255714614
65,Parque Cerro del Tío Pío,CALLE BENJAMIN PALENCIA 2,40.39701982315709,-3.655239797848888,Bicipark Salamanca,Pl. del Marqués de Salamanca,-3.679172,40.430315,4567.724892987222
66,Parque Cerro Águila,CAMINO CERRO DEL AGUILA 1,40.45190771190827,-3.761757187185669,Bicipark Pitis,"Calle Pau Arroyo del Fresno, 181",-3.7249142,40.4959425,6397.025547248779
67,Parque Ciudad de los Ángeles,CALLE ANOETA 14 B,40.352850949880235,-3.6963807727286353,Bicipark Canalejas,-,-3.6994506,40.417807676,7239.0539094141695
68,Parque Cuesta del Galbán,CUESTA GALBAN 2,40.45019927443574,-3.768070614824996,Bicipark Pitis,"Calle Pau Arroyo del Fresno, 181",-3.7249142,40.4959425,7007.740998012938
69,Parque Cuña Verde de Vicálvaro. Zona A,AVENIDA DAROCA 300,40.40969329689759,-3.618025439807104,Bicipark Salamanca,Pl. del Marqués de Salamanca,-3.679172,40.430315,7196.578832527535
70,Parque Cuña Verde de Vicálvaro. Zona B,AVENIDA DAROCA 299,40.40930295868704,-3.616890442862423,Bicipark Salamanca,Pl. del Marqués de Salamanca,-3.679172,40.430315,7330.42542799529
71,Parque Cuña Verde de Vicálvaro. Zona C,AVENIDA CANILLEJAS A VICALVARO 102,40.41672706688541,-3.610853061814312,Bicipark Salamanca,Pl. del Marqués de Salamanca,-3.679172,40.430315,7769.311786013652
72,Parque Dehesa de la Villa,CARRETERA DEHESA DE LA VILLA 1,40.45817981904011,-3.7207253118064827,Bicipark Orense,"Avenida General Perón, 27",-3.693897,40.452973,3048.3885580260985
73,Parque Duque de Ahumada,CALLE LAGO VAN 16,40.4048457851104,-3.6062315414157613,Bicipark Salamanca,Pl. del Marqués de Salamanca,-3.679172,40.430315,8615.981304025061
74,Parque El Calero,CALLE JOSE DEL HIERRO 1,40.43555222953495,-3.6519351470803567,Bicipark Salamanca,Pl. del Marqués de Salamanca,-3.679172,40.430315,3093.639289238265
75,Parque El Cedral,CALLE ARTURO SORIA 233,40.462882951414265,-3.6650441004626564,Bicipark Recuerdo,"Calle Hiedra, 26",-3.678921,40.472419,1876.9722914113856
76,Parque El Cruce,CALLE ALCOCER 1,40.350970403692386,-3.6944891243298597,Bicipark Canalejas,-,-3.6994506,40.417807676,7460.847851605022
77,Parque Emir Mohamed I,CUESTA RAMON 1,40.41438785232736,-3.7147888896558188,Bicipark Canalejas,-,-3.6994506,40.417807676,1752.870073359909
78,Parque Emperatriz María de Austria,CALLE VIA LUSITANA 3,40.382311100280766,-3.7227552919050586,Bicipark Canalejas,-,-3.6994506,40.417807676,4729.965608865661
79,Parque Enrique Tierno Galván,CALLE MENESES 4,40.39210151448589,-3.681620654746187,Bicipark Montalban,"Calle de Montalbán, 5",-3.690786,40.418146,3074.247409456662
80,Parque Entrevías Forestal,CALLE EMBAJADORES 251,40.36782603611024,-3.6670181171393064,Bicipark Montalban,"Calle de Montalbán, 5",-3.690786,40.418146,6197.35357347136
81,Parque Entrevías Urbano,RONDA SUR 8,40.37253969509114,-3.6698091602059613,Bicipark Montalban,"Calle de Montalbán, 5",-3.690786,40.418146,5590.17109824164
82,Parque Este de Valdebernardo,AVENIDA DEMOCRACIA 25,40.393429973468265,-3.6183833916362733,Bicipark Salamanca,Pl. del Marqués de Salamanca,-3.679172,40.430315,7927.000937634398
83,Parque Eugenia de Montijo,CALLE PARQUE EUGENIA DE MONTIJO 3,40.37942623334737,-3.7527174453988774,Bicipark Aviación,Parking Aviación Española,-3.78369522,40.383491516,3485.4056031356627
84,Parque Eva Duarte,CALLE DOCTOR GOMEZ ULLA 9,40.42985671996897,-3.668031432543624,Bicipark Salamanca,Pl. del Marqués de Salamanca,-3.679172,40.430315,1243.7624688348126
85,Parque Forestal Fuente Carrantona,CALLE FUENTE CARRANTONA 38,40.410083041012584,-3.6297141827859876,Bicipark Salamanca,Pl. del Marqués de Salamanca,-3.679172,40.430315,5958.854523324282
86,Parque Forestal Julio Alguacil Gómez,PARQUE Ctra Carabanchel a Villaverde  con vuelta Calle Verde Viento ,40.36073540960827,-3.7177186736043275,Bicipark Canalejas,-,-3.6994506,40.417807676,6672.085939552944
87,Parque Forestal de Valdebebas-Felipe VI,AVENIDA LAS FUERZAS ARMADAS 11,40.48494412599755,-3.641451621738692,Bicipark Fuente de la Mora,Estación de Fuente de la Mora,-3.6630679,40.4846838,2411.3843097580598
88,Parque Forestal de Vicálvaro,PASEO POLIDEPORTIVO 1,40.41022401774968,-3.60626801415248,Bicipark Salamanca,Pl. del Marqués de Salamanca,-3.679172,40.430315,8434.00803812727
89,Parque Félix Rodríguez de la Fuente,CALLE PADRE CLARET 38,40.45205238274073,-3.6653500732558792,Bicipark Recuerdo,"Calle Hiedra, 26",-3.678921,40.472419,2726.140765125246
90,Parque General Fanjul - Santa Margarita,AVENIDA DE LAS ÁGUILAS 144,40.38033890061462,-3.7834984766161837,Bicipark Aviación,Parking Aviación Española,-3.78369522,40.383491516,351.6332512343023
91,Parque Hortaleza,CARRETERA ESTACION DE HORTALEZA 18,40.48024318499327,-3.650809942180937,Bicipark Fuente de la Mora,Estación de Fuente de la Mora,-3.6630679,40.4846838,1453.946609306299
92,Parque Huerta del Obispo.,CALLE PALOMARES 34,40.346980092315505,-3.712145719392749,Bicipark Canalejas,-,-3.6994506,40.417807676,8010.664380060559
93,Parque Juan Carlos I,"GLORIETA S.A.R. DON JUAN DE BORBON Y BATTEMBERG, 5 5",40.45999848510341,-3.6148888706303586,Bicipark Fuente de la Mora,Estación de Fuente de la Mora,-3.6630679,40.4846838,6035.911078197009
94,Parque Juan Pablo II,AVENIDA MACHUPICHU 1,40.45544764269407,-3.623539375307719,Bicipark Fuente de la Mora,Estación de Fuente de la Mora,-3.6630679,40.4846838,5480.257629749513
95,Parque Juan de la Cosa,CALLE VICTOR ANDRES BELAUNDE 1,40.45424210617104,-3.679171627391412,Bicipark Orense,"Avenida General Perón, 27",-3.693897,40.452973,1648.6841201692669
96,Parque La Rinconada,CALLE HIENDELAENCINA 9,40.45750725687833,-3.7664554910416252,Bicipark Pitis,"Calle Pau Arroyo del Fresno, 181",-3.7249142,40.4959425,6307.350141635806
97,Parque La Viña,CALLE TIMOTEO PEREZ RUBIO 9,40.38556774381467,-3.67430914572838,Bicipark Montalban,"Calle de Montalbán, 5",-3.690786,40.418146,4065.7592112612842
98,Parque Ladera de los Almendros,CALLE LADERA DE LOS ALMENDROS 46,40.39616431537003,-3.6261065047300303,Bicipark Salamanca,Pl. del Marqués de Salamanca,-3.679172,40.430315,7034.908939574032
99,Parque Lineal de Palomeras,AVENIDA ALBUFERA 293,40.38581882868559,-3.6363631773029352,Bicipark Salamanca,Pl. del Marqués de Salamanca,-3.679172,40.430315,6880.223433829225
100,Parque Lineal del Manzanares (Usera - Pte de Vallecas),CAMINO PERALES 47,40.379745,-3.690042,Bicipark Montalban,"Calle de Montalbán, 5",-3.690786,40.418146,4275.585342119228
101,Parque Madrid Río,PASARELA HISTORICA PASEO DE LAS YESERIAS ,40.39815439895114,-3.7125359439695975,Bicipark Canalejas,-,-3.6994506,40.417807676,2630.0531787113587
102,Parque Martala,AVENIDA MORATALAZ 183,40.40882236801765,-3.643898652734279,Bicipark Salamanca,Pl. del Marqués de Salamanca,-3.679172,40.430315,4604.965176823277
103,Parque Martin Luther King,CALLE CERRO NEGRO 1,40.398195733324194,-3.6701340560704026,Bicipark Montalban,"Calle de Montalbán, 5",-3.690786,40.418146,3199.8896674929856
104,Parque Meseta de Orcasitas,RONDA COOPERATIVAS 6,40.3673502443602,-3.7076605178679096,Bicipark Canalejas,-,-3.6994506,40.417807676,5691.0695515052175
105,Parque Mirador de Tierno Galván,CALLE NEBULOSAS 7,40.394735491209424,-3.6856299107811368,Bicipark Montalban,"Calle de Montalbán, 5",-3.690786,40.418146,2668.76178852733
106,Parque Mirador de las Cárcavas,CALLE RAFAELA APARICIO 2,40.47917989766592,-3.6330084507532687,Bicipark Fuente de la Mora,Estación de Fuente de la Mora,-3.6630679,40.4846838,3408.5154846337477
107,Parque Norte,CALLE ARZOBISPO MORCILLO 7,40.48106787416528,-3.6933504628706095,Bicipark Recuerdo,"Calle Hiedra, 26",-3.678921,40.472419,1875.581762566845
108,Parque Nudo Norte de Begoña,AVENIDA LLANO CASTELLANO 1,40.483895554775785,-3.6844715393162772,Bicipark Recuerdo,"Calle Hiedra, 26",-3.678921,40.472419,1419.6939007360631
109,Parque Olof Palme,CALLE CERECINOS 1,40.38439900273861,-3.7129519968429445,Bicipark Canalejas,-,-3.6994506,40.417807676,4012.4338410260207
110,Parque Orlando Zapata Tamayo,CALLE URUGUAY 6,40.455011305200735,-3.6743070613284736,Bicipark Recuerdo,"Calle Hiedra, 26",-3.678921,40.472419,2005.0002165719113
111,Parque Paseo Muñoz Grandes,PASEO MARCELINO CAMACHO 6,40.385086008433305,-3.7398326701482016,Bicipark Aviación,Parking Aviación Española,-3.78369522,40.383491516,4896.517775455976
112,Parque Payaso Fofó,CALLE PAYASO FOFO 11,40.38901086962944,-3.6599692832803825,Bicipark Montalban,"Calle de Montalbán, 5",-3.690786,40.418146,4726.091775272662
113,Parque Peñuelas,CALLE GARGANTILLA 2,40.39900396358797,-3.703926416750334,Bicipark Canalejas,-,-3.6994506,40.417807676,2151.942489549345
114,Parque Pinar de la Elipa,CALLE FELIX RODRIGUEZ DE LA FUENTE 26,40.418806485625446,-3.6563469592354387,Bicipark Salamanca,Pl. del Marqués de Salamanca,-3.679172,40.430315,2850.233667819293
115,Parque Pinar del Rey,CARRETERA CANILLAS 1,40.463441129364256,-3.6556488853143465,Bicipark Fuente de la Mora,Estación de Fuente de la Mora,-3.6630679,40.4846838,2505.351344814965
116,Parque Plaza Chozas de Canales,CARRETERA VILLAVERDE A VALLECAS 10,40.35277786522202,-3.6905392176697744,Bicipark Montalban,"Calle de Montalbán, 5",-3.690786,40.418146,7276.79954966894
117,Parque Plaza Colonia Oroquieta,CARRETERA VILLAVERDE A VALLECAS 1 B,40.35239211569256,-3.691771736219469,Bicipark Montalban,"Calle de Montalbán, 5",-3.690786,40.418146,7320.514805636102
118,Parque Plaza de España,PLAZA ESPAÑA 20,40.42372251184839,-3.7116577340508523,Bicipark Canalejas,-,-3.6994506,40.417807676,1512.5711092888998
119,Parque Quinta de los Molinos,CALLE ALCALA 527,40.44245748722783,-3.6217095632137375,Bicipark Salamanca,Pl. del Marqués de Salamanca,-3.679172,40.430315,6550.668834942129
120,Parque Ramírez de Prado,CALLE RAMIREZ DE PRADO 2,40.39932569185547,-3.6894842200951024,Bicipark Montalban,"Calle de Montalbán, 5",-3.690786,40.418146,2100.093688103815
121,Parque Roma,CALLE JUAN ESPLANDIU 4,40.41641041087398,-3.662606100328213,Bicipark Salamanca,Pl. del Marqués de Salamanca,-3.679172,40.430315,2410.5135297047273
122,Parque Salvador de Madariaga,CALLE SALVADOR DE MADARIAGA 9,40.439387584092685,-3.6571484128652396,Bicipark Salamanca,Pl. del Marqués de Salamanca,-3.679172,40.430315,2656.185862720249
123,Parque San Blas. El Paraíso,AVENIDA ARCENTALES 4,40.42996840999023,-3.622184001035289,Bicipark Salamanca,Pl. del Marqués de Salamanca,-3.679172,40.430315,6356.891542394709
124,Parque San José de Calasanz,CALLE JOAQUIN MARIA LOPEZ 39,40.43761436823094,-3.7145867743039878,Bicipark Almagro,"Calle Almagro, 11",-3.692879,40.430361,2552.625117425483
125,Parque San Juan Bautista,CALLE AGASTIA 87,40.451304609076615,-3.6558964974118364,Bicipark Recuerdo,"Calle Hiedra, 26",-3.678921,40.472419,3481.5126650177676
126,Parque Sancho Dávila,PLAZA AMERICA ESPAÑOLA 4,40.42949627920971,-3.6617795915510434,Bicipark Salamanca,Pl. del Marqués de Salamanca,-3.679172,40.430315,1942.2332459781426
127,Parque Santa Eugenia,CALLE Cerro Almodóvar 1,40.38131130575197,-3.608459149580722,Bicipark Salamanca,Pl. del Marqués de Salamanca,-3.679172,40.430315,9590.255492017603
128,Parque Santa Rita,CALLE ALBA DE TORMES 2,40.379040097900265,-3.742770522229555,Bicipark Aviación,Parking Aviación Española,-3.78369522,40.383491516,4592.373685037851
129,Parque Segura,CALLE SEGURA 5,40.368011394592635,-3.7158770172855813,Bicipark Canalejas,-,-3.6994506,40.417807676,5838.311870035069
130,Parque Soto de Entrevías,CARRETERA ACCESO A LA ESTACION DE AUTOBUSES DE LA E.M.T. 9,40.376563359161366,-3.675043967167776,Bicipark Montalban,"Calle de Montalbán, 5",-3.690786,40.418146,4950.845153438651
131,Parque Urpisa,CAMINO VASARES 2,40.38289158525453,-3.619641837988416,Bicipark Salamanca,Pl. del Marqués de Salamanca,-3.679172,40.430315,8483.127285733146
132,Parque Valdebernardo Este,CALLE CORDEL DE PAVONES 2,40.4027578376722,-3.617738099849234,Bicipark Salamanca,Pl. del Marqués de Salamanca,-3.679172,40.430315,7507.974847737624
133,Parque Valle de Enmedio,CALLE MIRADOR DE LA REINA 22,40.48922371593969,-3.7237594350747143,Bicipark Pitis,"Calle Pau Arroyo del Fresno, 181",-3.7249142,40.4959425,758.9441839157581
134,Parque Vallecas Villa,CALLE BABILAFUENTE 2,40.37217516332789,-3.6238430832643598,Bicipark Salamanca,Pl. del Marqués de Salamanca,-3.679172,40.430315,8943.048879739777
135,Parque Vandel,CALLE MOLINA DE SEGURA 10,40.4049148503112,-3.636955454805149,Bicipark Salamanca,Pl. del Marqués de Salamanca,-3.679172,40.430315,5492.789462769369
136,Parque Virgen de la Esperanza,CALLE ANOETA 45,40.351030215596516,-3.7010015933831006,Bicipark Canalejas,-,-3.6994506,40.417807676,7435.646079604891
137,Parque de Alfonso XIII,AVENIDA ALFONSO XIII 136,40.45990434942118,-3.669142805075655,Bicipark Recuerdo,"Calle Hiedra, 26",-3.678921,40.472419,1769.327987900194
138,Parque de Amos Acero,CALLE SIERRA MOLINA 1,40.38903628994235,-3.6665321826830297,Bicipark Montalban,"Calle de Montalbán, 5",-3.690786,40.418146,4221.423061152322
139,Parque de Ana Tutor,CALLE VALLE DE PINARES LLANOS 1,40.48559668319756,-3.7174080145343464,Bicipark Pitis,"Calle Pau Arroyo del Fresno, 181",-3.7249142,40.4959425,1423.9197696455574
140,Parque de Arriaga,AVENIDA DAROCA 95,40.425090271008656,-3.6427216652412877,Bicipark Salamanca,Pl. del Marqués de Salamanca,-3.679172,40.430315,4107.317905021902
141,Parque de Atenas,CALLE SEGOVIA 28,40.413971277014085,-3.715138075489171,Bicipark Canalejas,-,-3.6994506,40.417807676,1801.340807121983
142,Parque de Berlín,AVENIDA RAMON Y CAJAL 2,40.45150372849227,-3.6760645355093797,Bicipark Orense,"Avenida General Perón, 27",-3.693897,40.452973,1995.9263619298963
143,Parque de Breogán,AVENIDA BRASILIA 2,40.437140971249754,-3.6608995093418306,Bicipark Salamanca,Pl. del Marqués de Salamanca,-3.679172,40.430315,2175.2963976351034
144,Parque de Canillejas,CALLE CIRCE 57,40.44191186628217,-3.610832880429799,Bicipark Fuente de la Mora,Estación de Fuente de la Mora,-3.6630679,40.4846838,7524.538281581431
145,Parque de Comillas,CALLE MIGUEL SORIANO 1,40.39191419121823,-3.7141505979369023,Bicipark Canalejas,-,-3.6994506,40.417807676,3316.2550524513454
146,Parque de Darwin,CALLE MANUEL MARIA ARRILLAGA 29 B,40.40687979108534,-3.660862691056585,Bicipark Salamanca,Pl. del Marqués de Salamanca,-3.679172,40.430315,3313.1699025695707
147,Parque de Enrique Herreros,CALLE BRAVO MURILLO 49,40.43934359051524,-3.7043941647283263,Bicipark Almagro,"Calle Almagro, 11",-3.692879,40.430361,1627.8550590734935
148,Parque de Francos Rodríguez,AVENIDA DOCTOR FEDERICO RUBIO Y GALI 63,40.45374298443811,-3.714179732136829,Bicipark Orense,"Avenida General Perón, 27",-3.693897,40.452973,2264.212808893401
149,Parque de Fuencarral,CALLE NUESTRA SEÑORA DE VALVERDE 151,40.50021894773631,-3.6861244200250765,Bicipark Fuente de la Mora,Estación de Fuente de la Mora,-3.6630679,40.4846838,3099.2763855003345
150,Parque de Fuentechica,CALLE ANASTASIA LOPEZ 21,40.49571829898632,-3.6915305267345935,Bicipark Recuerdo,"Calle Hiedra, 26",-3.678921,40.472419,2950.5274536505694
151,Parque de Fuentelarreina,CALLE ROSALIA DE CASTRO 80,40.48346692636297,-3.7337736098964642,Bicipark Pitis,"Calle Pau Arroyo del Fresno, 181",-3.7249142,40.4959425,1704.5429729397545
152,Parque de Gabriela Mistral,CALLE ROSALIA DE CASTRO 69,40.484467522541834,-3.7336783173806616,Bicipark Pitis,"Calle Pau Arroyo del Fresno, 181",-3.7249142,40.4959425,1608.600106942012
153,Parque de Isabel Clara Eugenia,CALLE MAR CASPIO 4,40.473611797871555,-3.646133317289789,Bicipark Fuente de la Mora,Estación de Fuente de la Mora,-3.6630679,40.4846838,2255.5297507183504
154,Parque de Juan XXIII,PASEO JUAN XXIII 21,40.450619984285915,-3.7136749543495617,Bicipark Orense,"Avenida General Perón, 27",-3.693897,40.452973,2221.774516005004
155,Parque de Las Cruces,AVENIDA POBLADOS 74,40.37746689917427,-3.7547689345277977,Bicipark Aviación,Parking Aviación Española,-3.78369522,40.383491516,3295.9925452245684
156,Parque de Malmoe,CALLE MALMOE 2,40.41540866888321,-3.625727333816089,Bicipark Salamanca,Pl. del Marqués de Salamanca,-3.679172,40.430315,6188.172393677389
157,Parque de Manoteras,CALLE BACARES 22,40.476654320025524,-3.662490150184719,Bicipark Fuente de la Mora,Estación de Fuente de la Mora,-3.6630679,40.4846838,896.1579328620032
158,Parque de Pan Bendito,AVENIDA POBLADOS 35,40.38951896001857,-3.76740436374511,Bicipark Aviación,Parking Aviación Española,-3.78369522,40.383491516,1937.3360034196232
159,Parque de Peñagrande,CALLE LEOPOLDO ALAS CLARIN 53 c/v C/ Doctor Reinosa,40.48185149371301,-3.732800354586844,Bicipark Pitis,"Calle Pau Arroyo del Fresno, 181",-3.7249142,40.4959425,1798.4629300685335
160,Parque de Pinar de Barajas,AUTOVIA A-2 700,40.44943999585466,-3.6315854281089894,Bicipark Fuente de la Mora,Estación de Fuente de la Mora,-3.6630679,40.4846838,5265.422636658455
161,Parque de Plata y Castañar,GLORIETA MIRADOR DEL SUR 1,40.348762550258805,-3.715284870727623,Bicipark Canalejas,-,-3.6994506,40.417807676,7886.4231757931475
162,Parque de Pradolongo,AVENIDA RAFAELA YBARRA 85,40.37557617692429,-3.711963730232908,Bicipark Canalejas,-,-3.6994506,40.417807676,4904.0433752753015
163,Parque de Rafael Finat,CALLE VIDAUBA 4,40.383406554321375,-3.7639655933540093,Bicipark Aviación,Parking Aviación Española,-3.78369522,40.383491516,2201.085035465199
164,Parque de Salvador Allende,CALLE SALVADOR ALLENDE 3,40.364341448699825,-3.757402071835875,Bicipark Aviación,Parking Aviación Española,-3.78369522,40.383491516,3626.1072532471226
165,Parque de San Isidro,PASEO ERMITA DEL SANTO 74 c/v Pso. Quince de Mayo,40.39924815906885,-3.7284983869120603,Bicipark Canalejas,-,-3.6994506,40.417807676,3842.997949062523
166,Parque de Santa Ana,CALLE SAN CUGAT DEL VALLES 4,40.49738155071247,-3.6936009892949127,Bicipark Recuerdo,"Calle Hiedra, 26",-3.678921,40.472419,3225.4340199293656
167,Parque de Villa Rosa-Paco Caño,CALLE ACONCAGUA 2,40.468674190501815,-3.631588640594873,Bicipark Fuente de la Mora,Estación de Fuente de la Mora,-3.6630679,40.4846838,3937.749611789798
168,Parque de la Alcazaba,CALLE RIBADAVIA 45,40.47266915640937,-3.707125226601671,Bicipark Orense,"Avenida General Perón, 27",-3.693897,40.452973,2642.8862982402843
169,Parque de la Almudena,CALLE NICOLAS SALMERON 4,40.42060649869604,-3.6324237307227616,Bicipark Salamanca,Pl. del Marqués de Salamanca,-3.679172,40.430315,5325.42151796777
170,Parque de la Amistad,CALLE SANTA PETRONILA 21,40.348326631620154,-3.6921658727994773,Bicipark Montalban,"Calle de Montalbán, 5",-3.690786,40.418146,7773.780605300638
171,Parque de la Bombilla,AVENIDA VALLADOLID 4,40.42834456035844,-3.728941931668392,Bicipark Canalejas,-,-3.6994506,40.417807676,3492.718412337408
172,Parque de la Casa de Campo,PASEO PUERTA DEL ANGEL 1,40.41472407139105,-3.7301857404819767,Bicipark Canalejas,-,-3.6994506,40.417807676,3445.7647153628877
173,Parque de la Cuña Verde de Latina,CALLE CONCEJAL FRANCISCO JOSE JIMENEZ MARTIN 11,40.39998426244181,-3.7486569900905633,Bicipark Aviación,Parking Aviación Española,-3.78369522,40.383491516,4318.576546462115
174,Parque de la Cuña Verde de O´Donnell,CALLE FUENTE CARRANTONA 61,40.41220177650095,-3.628985975935673,Bicipark Salamanca,Pl. del Marqués de Salamanca,-3.679172,40.430315,5950.126269416445
175,Parque de la Dehesa Boyal,CALLE BURJASOT 1 A,40.34452019989438,-3.686887364713823,Bicipark Montalban,"Calle de Montalbán, 5",-3.690786,40.418146,8207.516660846923
176,Parque de la Gavia,AVENIDA MAYORAZGO 26,40.36791659504536,-3.6283267501780205,Bicipark Montalban,"Calle de Montalbán, 5",-3.690786,40.418146,8933.421894373772
177,Parque de la Maceta,AVENIDA DAROCA 301,40.40838172678723,-3.6156327652234856,Bicipark Salamanca,Pl. del Marqués de Salamanca,-3.679172,40.430315,7496.281628096036
178,Parque de la Montaña Templo de Debod,CALLE PROFESOR MARTIN ALMAGRO BASCH ,40.423065607234435,-3.7168927333258734,Bicipark Canalejas,-,-3.6994506,40.417807676,2031.8528289562355
179,Parque de la Supermanzana,CALLE SANGENJO 27,40.48531189120052,-3.7006858825216624,Bicipark Recuerdo,"Calle Hiedra, 26",-3.678921,40.472419,2820.3772348710013
180,Parque de la Ventilla,CALLE VIA LIMITE 51,40.47342193811745,-3.6929061067371793,Bicipark Recuerdo,"Calle Hiedra, 26",-3.678921,40.472419,1564.0319514729629
181,Parque de la Vicalvarada,CALLE VILLABLANCA 1,40.40930182229157,-3.608605091516184,Bicipark Salamanca,Pl. del Marqués de Salamanca,-3.679172,40.430315,8211.605485206464
182,Parque de la Volatería,AVENIDA POBLADOS 110,40.37342722778796,-3.732581210214349,Bicipark Aviación,Parking Aviación Española,-3.78369522,40.383491516,5811.2663264468965
183,Parque de las Avenidas,AVENIDA BRASILIA 6,40.44185168357492,-3.6610753472863737,Bicipark Salamanca,Pl. del Marqués de Salamanca,-3.679172,40.430315,2392.543919199344
184,Parque de las Delicias,CALLE PARROCO EUSEBIO CUENCA 13,40.396280768551875,-3.6893809207693966,Bicipark Montalban,"Calle de Montalbán, 5",-3.690786,40.418146,2439.067723426044
185,Parque de los Llanos,CALLE DIONISIO INCA YUPANQUI 8,40.461621132349094,-3.6281020785174873,Bicipark Fuente de la Mora,Estación de Fuente de la Mora,-3.6630679,40.4846838,4669.396079190621
186,Parque de los Tilos,CALLE NICOLAS SALMERON 1,40.422169759145554,-3.6348548961758254,Bicipark Salamanca,Pl. del Marqués de Salamanca,-3.679172,40.430315,5025.891490505566
187,Parque del Bronce,CALLE BRONCE 5,40.390471636161195,-3.6875778883164587,Bicipark Montalban,"Calle de Montalbán, 5",-3.690786,40.418146,3101.4121213644426
188,Parque del Espinillo,CALLE UNANIMIDAD 23,40.361196526923834,-3.6853017812008,Bicipark Montalban,"Calle de Montalbán, 5",-3.690786,40.418146,6369.03558891878
189,Parque del Museo del Prado,PASEO PRADO 11,40.41374876020892,-3.6924939830736947,Bicipark Montalban,"Calle de Montalbán, 5",-3.690786,40.418146,525.2707579827336
190,Parque del Oeste,PASEO CAMOENS Y VALERO 4,40.43179642724134,-3.7281634896577027,Bicipark Canalejas,-,-3.6994506,40.417807676,3561.5082170806963
191,Parque del Pueblo del Pardo,AVENIDA GUARDIA 4,40.5186002228516,-3.7753787533567573,Bicipark Pitis,"Calle Pau Arroyo del Fresno, 181",-3.7249142,40.4959425,6168.933008471756
192,Pinar Santa Eugenia,CALLE CERRO DE ALMODOVAR 1,40.386190698831044,-3.605345456872275,Bicipark Salamanca,Pl. del Marqués de Salamanca,-3.679172,40.430315,9588.607544072142
193,Plaza Mayor de Barajas,PLAZA MAYOR DE BARAJAS 1,40.4735113714068,-3.57805132010274,Bicipark Fuente de la Mora,Estación de Fuente de la Mora,-3.6630679,40.4846838,9564.139910118083
194,Plaza de Murillo,PLAZA MURILLO 1,40.41290521872114,-3.692004931820884,Bicipark Montalban,"Calle de Montalbán, 5",-3.690786,40.418146,599.0371413654043
195,Plaza de la Lealtad,JARDINES PLAZA DE LA LEALTAD ,40.41687551533723,-3.6934169057776667,Bicipark Montalban,"Calle de Montalbán, 5",-3.690786,40.418146,325.7805922577596
196,Quinta de Torre Arias,CALLE ALCALA 551,40.443385945708435,-3.6182513751654133,Bicipark Fuente de la Mora,Estación de Fuente de la Mora,-3.6630679,40.4846838,6791.551952887981
197,Quinta de la Fuente del Berro,CALLE ENRIQUE D'ALMONTE 1,40.42299730556785,-3.6625213630031794,Bicipark Salamanca,Pl. del Marqués de Salamanca,-3.679172,40.430315,2028.1345200563212
198,Rosaleda de Madrid. Parque del Oeste,CALLE ROSALEDA 1,40.42633204176242,-3.722298777408928,Bicipark Canalejas,-,-3.6994506,40.417807676,2719.7062536612925
199,Vivero Estufas de El Retiro,"GLORIETA ANGEL CAIDO 4 Parque del Retiro. Entrada por C/ Alfonso XII, frente a la cuesta de Claudio Moyano",40.409899256936335,-3.6823305487957123,Bicipark Montalban,"Calle de Montalbán, 5",-3.690786,40.418146,1316.2099064687982
200,Vivero de la Casa de Campo,PASEO AZUL 2,40.41984158690351,-3.7286969080235455,Bicipark Canalejas,-,-3.6994506,40.417807676,3270.383252337284
201,Vivero municipal de Migas Calientes,AUTOVIA M-30 2200,40.445355536117184,-3.7399742609916697,Bicipark Orense,"Avenida General Perón, 27",-3.693897,40.452973,5209.585727660146
202,Zona verde C/ Fresnedillas,CALLE FRESNEDILLAS 1 C/ Los Gavilanes y C/ Gabriela Mistral,40.477263871475174,-3.7430025162285188,Bicipark Pitis,"Calle Pau Arroyo del Fresno, 181",-3.7249142,40.4959425,2897.456020002755
203,Área Forestal de Tres Cantos,CARRETERA M-607 2100,40.582362517713584,-3.7054314643264945,Bicipark Pitis,"Calle Pau Arroyo del Fresno, 181",-3.7249142,40.4959425,9862.678754804414
